STARLINK-3112           
1 49421U 21104P   26068.73398525 -.00000764  00000+0 -29927-4 0  9993
2 49421  53.2160 228.7282 0001123  88.0190 272.0931 15.08839679238635
STARLINK-5895           
1 55964U 23037BC  26068.93316413  .00010921  00000+0  72850-3 0  9993
2 55964  69.9972 260.0280 0004986 264.4993  95.5602 15.07243555164606
