[{"OBJECT_NAME":"STARLINK-3112","OBJECT_ID":"2021-104P","EPOCH":"2026-03-09T17:36:56.325600","MEAN_MOTION":15.08839679,"ECCENTRICITY":0.00011236,"INCLINATION":53.216,"RA_OF_ASC_NODE":228.7282,"ARG_OF_PERICENTER":88.019,"MEAN_ANOMALY":272.0931,"EPHEMERIS_TYPE":0,"CLASSIFICATION_TYPE":"U","NORAD_CAT_ID":49421,"ELEMENT_SET_NO":999,"REV_AT_EPOCH":23863,"BSTAR":-2.9927261e-5,"MEAN_MOTION_DOT":-7.64e-6,"MEAN_MOTION_DDOT":0},{"OBJECT_NAME":"STARLINK-5895","OBJECT_ID":"2023-037BC","EPOCH":"2026-03-09T22:23:45.381696","MEAN_MOTION":15.07243555,"ECCENTRICITY":0.00049855,"INCLINATION":69.9972,"RA_OF_ASC_NODE":260.028,"ARG_OF_PERICENTER":264.4993,"MEAN_ANOMALY":95.5602,"EPHEMERIS_TYPE":0,"CLASSIFICATION_TYPE":"U","NORAD_CAT_ID":55964,"ELEMENT_SET_NO":999,"REV_AT_EPOCH":16460,"BSTAR":0.00072849946,"MEAN_MOTION_DOT":0.00010921,"MEAN_MOTION_DDOT":0}]
